     2.100          NAVIGATION                              RINEX VERSION / TYPE
fic2rin                                 07/10/2013 00:23:42 PGM / RUN BY / DATE
                                                            END OF HEADER
30 13  7  9 13 59 44.0 -.170459505171D-03  .113686837722D-11  .000000000000D+00
     .110000000000D+02 -.339062500000D+02  .583845748090D-08  .286164155771D-01
    -.165961682796D-05  .636624603067D-02  .123120844364D-05  .515368368912D+04
     .223184000000D+06 -.316649675369D-07  .198226952189D+01  .596046447754D-07
     .977979897291D+00  .360937500000D+03  .877193739097D+00 -.846070956537D-08
    -.230723896291D-09  .100000000000D+01  .174800000000D+04  .000000000000D+00
     .240000000000D+01  .630000000000D+02 -.190921127796D-07  .110000000000D+02
     .216006000000D+06  .400000000000D+01
 1 13  7  9 14  0  0.0  .477237626910D-04  .500222085975D-11  .000000000000D+00
     .109000000000D+03  .212812500000D+02  .437339645523D-08 -.304653628177D+01
     .117160379887D-05  .207391229924D-02  .912137329578D-05  .515369495773D+04
     .223200000000D+06  .372529029846D-07 -.221601612329D+01 -.242143869400D-07
     .960195048595D+00  .204343750000D+03  .276117277667D+00 -.785961309872D-08
     .592167523297D-09  .100000000000D+01  .174800000000D+04  .000000000000D+00
     .240000000000D+01  .000000000000D+00  .838190317154D-08  .109000000000D+03
     .216006000000D+06  .400000000000D+01
 2 13  7  9 14  0  0.0  .440916046500D-03  .181898940355D-11  .000000000000D+00
     .990000000000D+02  .266875000000D+02  .480270005173D-08 -.229982927333D+01
     .137835741043D-05  .124421000946D-01  .901147723198D-05  .515368769836D+04
     .223200000000D+06 -.130385160446D-07 -.223861662474D+01 -.132247805595D-06
     .938725109257D+00  .193093750000D+03 -.257976063151D+01 -.794461663946D-08
     .697529054885D-09  .100000000000D+01  .174800000000D+04  .000000000000D+00
     .240000000000D+01  .000000000000D+00 -.176951289177D-07  .990000000000D+02
     .216006000000D+06  .400000000000D+01
 3 13  7  9 14  0  0.0  .230478122830D-03  .488853402203D-11  .000000000000D+00
     .950000000000D+02 -.125312500000D+03  .470483883257D-08 -.212832524556D+01
    -.636279582977D-05  .164821171202D-01  .762380659580D-05  .515371266365D+04
     .223200000000D+06  .286847352982D-06  .287478308395D+01 -.540167093277D-07
     .935320076727D+00  .215218750000D+03  .130236019998D+01 -.791997275580D-08
    -.220366321999D-09  .100000000000D+01  .174800000000D+04  .000000000000D+00
     .240000000000D+01  .000000000000D+00 -.465661287308D-08  .950000000000D+02
     .216006000000D+06  .400000000000D+01
 4 13  7  9 14  0  0.0  .267637893558D-03  .101181285572D-10  .000000000000D+00
     .180000000000D+02  .286875000000D+02  .498127891883D-08  .918108507590D+00
     .165961682796D-05  .103480876423D-01  .907853245735D-05  .515357156944D+04
     .223200000000D+06 -.193715095520D-06 -.222221163549D+01 -.223517417908D-07
     .937744665949D+00  .197250000000D+03  .985644578613D+00 -.829427406124D-08
     .416445918073D-09  .100000000000D+01  .174800000000D+04  .000000000000D+00
     .240000000000D+01  .000000000000D+00 -.605359673500D-08  .180000000000D+02
     .216006000000D+06  .400000000000D+01
 5 13  7  9 14  0  0.0 -.398341100663D-03 -.568434188608D-12  .000000000000D+00
     .140000000000D+02 -.164375000000D+02  .514092842602D-08 -.378269638963D-01
    -.726431608200D-06  .308204058092D-02  .466033816338D-05  .515364525032D+04
     .223200000000D+06  .298023223877D-07 -.117273381437D+01  .558793544769D-08
     .948075623727D+00  .281031250000D+03  .245028970874D+00 -.838749222986D-08
    -.112504686272D-09  .100000000000D+01  .174800000000D+04  .000000000000D+00
     .240000000000D+01  .000000000000D+00 -.102445483208D-07  .140000000000D+02
     .216006000000D+06  .400000000000D+01
 6 13  7  9 14  0  0.0  .150648411363D-03 -.175077730091D-10  .000000000000D+00
     .230000000000D+02 -.118750000000D+03  .468805241906D-08 -.310064021057D+00
    -.627152621746D-05  .812207686249D-02  .871904194355D-05  .515368558121D+04
     .223200000000D+06  .171363353729D-06  .295453460139D+01 -.141561031342D-06
     .941952855134D+00  .204187500000D+03 -.275746860958D+00 -.820927052050D-08
    -.280368821344D-09  .100000000000D+01  .174800000000D+04  .000000000000D+00
     .240000000000D+01  .000000000000D+00 -.512227416039D-08  .230000000000D+02
     .216006000000D+06  .400000000000D+01
 7 13  7  9 14  0  0.0  .234148930758D-03  .420641299570D-11  .000000000000D+00
     .110000000000D+02  .115906250000D+03  .422124726046D-08  .260747937276D+01
     .607967376709D-05  .661571824457D-02  .647082924843D-05  .515368627357D+04
     .223200000000D+06 -.186264514923D-06  .944403002999D+00 -.298023223877D-07
     .975281675094D+00  .264312500000D+03 -.292562654871D+01 -.789247161027D-08
     .330370904131D-09  .100000000000D+01  .174800000000D+04  .000000000000D+00
     .240000000000D+01  .000000000000D+00 -.107102096081D-07  .110000000000D+02
     .216006000000D+06  .400000000000D+01
 8 13  7  9 14  0  0.0  .727828592062D-05  .227373675443D-12  .000000000000D+00
     .590000000000D+02  .108875000000D+03  .382337354457D-08  .203994133819D+01
     .572577118874D-05  .131296728505D-01  .600330531597D-05  .515371736526D+04
     .223200000000D+06 -.275671482086D-06  .103663051843D+01  .232830643654D-06
     .998005525405D+00  .286500000000D+03 -.286647271447D+01 -.781032533140D-08
     .273582824394D-09  .100000000000D+01  .174800000000D+04  .000000000000D+00
     .240000000000D+01  .000000000000D+00 -.419095158577D-08  .590000000000D+02
     .216006000000D+06  .400000000000D+01
10 13  7  9 14  0  0.0 -.863457098603D-04 -.136424205266D-11  .000000000000D+00
     .103000000000D+03 -.116562500000D+02  .533379360248D-08  .161994976861D+00
    -.555068254471D-06  .124872626038D-01  .469200313091D-05  .515363826561D+04
     .223200000000D+06 -.186264514923D-07 -.115354797585D+01  .182539224625D-06
     .942909745461D+00  .281406250000D+03  .804916088717D+00 -.862857370044D-08
    -.153934983439D-09  .100000000000D+01  .174800000000D+04  .000000000000D+00
     .240000000000D+01  .000000000000D+00 -.279396772385D-08  .103000000000D+03
     .216006000000D+06  .400000000000D+01
11 13  7  9 14  0  0.0 -.399216543883D-03 -.352429196937D-11  .000000000000D+00
     .960000000000D+02 -.123125000000D+02  .571809532448D-08  .281705128508D+01
    -.616535544395D-06  .141766261077D-01  .101644545794D-04  .515369133377D+04
     .223200000000D+06  .135973095894D-06 -.251614063858D+01 -.106170773506D-06
     .889256916229D+00  .142000000000D+03  .118012906422D+01 -.823141430002D-08
     .443947063606D-09  .100000000000D+01  .174800000000D+04  .000000000000D+00
     .240000000000D+01  .000000000000D+00 -.116415321827D-07  .960000000000D+02
     .216006000000D+06  .400000000000D+01
12 13  7  9 14  0  0.0  .143838115036D-03  .216004991671D-11  .000000000000D+00
     .700000000000D+02 -.460625000000D+02  .428374986395D-08  .229903397839D+01
    -.247731804848D-05  .451000069734D-02  .176578760147D-05  .515353684425D+04
     .223200000000D+06 -.163912773132D-06  .200419787393D+01  .149011611938D-07
     .984353382247D+00  .358312500000D+03  .311379278037D+00 -.816712590786D-08
    -.225009372544D-09  .100000000000D+01  .174800000000D+04  .000000000000D+00
     .240000000000D+01  .000000000000D+00 -.121071934700D-07  .700000000000D+02
     .216006000000D+06  .400000000000D+01
13 13  7  9 14  0  0.0  .101655256003D-03 -.363797880709D-11  .000000000000D+00
     .120000000000D+02  .254062500000D+02  .392337771014D-08 -.133717998801D+01
     .127777457237D-05  .515084422659D-02  .116508454084D-04  .515373454094D+04
     .223200000000D+06 -.100582838058D-06 -.220546779344D-01  .558793544769D-08
     .981469183662D+00  .173187500000D+03  .216512627525D+01 -.762067457454D-08
    -.242867259253D-09  .100000000000D+01  .174800000000D+04  .000000000000D+00
     .240000000000D+01  .000000000000D+00 -.111758708954D-07  .120000000000D+02
     .216006000000D+06  .400000000000D+01
14 13  7  9 14  0  0.0  .219549518079D-03 -.454747350886D-12  .000000000000D+00
     .330000000000D+02  .259375000000D+02  .410445668138D-08 -.110935521609D+01
     .151433050632D-05  .710888346657D-02  .113807618618D-04  .515376802826D+04
     .223200000000D+06  .316649675369D-07 -.515848891977D-01  .137835741043D-06
     .974119276961D+00  .167312500000D+03 -.203681502959D+01 -.767817696975D-08
    -.345371528968D-09  .100000000000D+01  .174800000000D+04  .000000000000D+00
     .240000000000D+01  .000000000000D+00 -.884756445885D-08  .330000000000D+02
     .216006000000D+06  .400000000000D+01
15 13  7  9 14  0  0.0 -.126846134663D-03 -.170530256582D-11  .000000000000D+00
     .970000000000D+02  .152187500000D+02  .485663086960D-08 -.163807713909D+01
     .476837158203D-06  .544501305558D-02  .104755163193D-04  .515378862762D+04
     .223200000000D+06  .614672899246D-07 -.152817742112D+00 -.800937414169D-07
     .940681702209D+00  .165750000000D+03  .165577554981D+00 -.803069165340D-08
    -.308227124611D-09  .100000000000D+01  .174800000000D+04  .000000000000D+00
     .340000000000D+01  .000000000000D+00 -.102445483208D-07  .970000000000D+02
     .216006000000D+06  .400000000000D+01
16 13  7  9 14  0  0.0 -.250411685556D-03  .454747350886D-12  .000000000000D+00
     .650000000000D+02 -.388437500000D+02  .433589489314D-08  .902084617274D-01
    -.211782753468D-05  .712280429434D-02  .145100057125D-05  .515366790581D+04
     .223200000000D+06  .633299350739D-07  .202261446770D+01  .614672899246D-07
     .985047637817D+00  .361406250000D+03  .126851687905D+00 -.831606068302D-08
    -.262510934634D-09  .100000000000D+01  .174800000000D+04  .000000000000D+00
     .240000000000D+01  .000000000000D+00 -.102445483208D-07  .650000000000D+02
     .216006000000D+06  .400000000000D+01
